{"type": "FeatureCollection", "features": [ {"type": "Feature", "properties": {"norad_id": 33825, "name": "COSMOS 2251 DEB", "group": "cosmos-2251-debris", "lat": 25.776747731077158, "lon": 18.511083001917946, "alt_km": 622.8658043948262, "timestamp": "2025-12-21T14:40:48.311424+00:00", "meta": {"OBJECT_NAME": "COSMOS 2251 DEB", "OBJECT_ID": "1993-036BS", "EPOCH": "2025-12-21T05:05:21.226272", "MEAN_MOTION": 14.69831911, "ECCENTRICITY": 0.00849717, "INCLINATION": 73.9844, "RA_OF_ASC_NODE": 11.3147, "ARG_OF_PERICENTER": 336.3536, "MEAN_ANOMALY": 96.2177, "EPHEMERIS_TYPE": 0, "CLASSIFICATION_TYPE": "U", "NORAD_CAT_ID": 33825, "ELEMENT_SET_NO": 999, "REV_AT_EPOCH": 89004, "BSTAR": 0.00056068801, "MEAN_MOTION_DOT": 3.507e-05, "MEAN_MOTION_DDOT": 0}, "tle": {"line1": "1 33825U 93036BS  25355.21205123  .00003507  00000+0  56069-3 0  9991", "line2": "2 33825  73.9844  11.3147 0084971 336.3536  96.2177 14.69831911890049"}}, "geometry": {"type": "Point", "coordinates": [18.511083001917946, 25.776747731077158]}}, {"type": "Feature", "properties": {"norad_id": 33826, "name": "COSMOS 2251 DEB", "group": "cosmos-2251-debris", "lat": 55.88323660081344, "lon": 58.14163879137236, "alt_km": 657.578134069573, "timestamp": "2025-12-21T14:40:48.311434+00:00", "meta": {"OBJECT_NAME": "COSMOS 2251 DEB", "OBJECT_ID": "1993-036BT", "EPOCH": "2025-12-21T06:30:34.147584", "MEAN_MOTION": 14.51758985, "ECCENTRICITY": 0.00826056, "INCLINATION": 74.0637, "RA_OF_ASC_NODE": 33.836, "ARG_OF_PERICENTER": 75.3455, "MEAN_ANOMALY": 5.8519, "EPHEMERIS_TYPE": 0, "CLASSIFICATION_TYPE": "U", "NORAD_CAT_ID": 33826, "ELEMENT_SET_NO": 999, "REV_AT_EPOCH": 87893, "BSTAR": 0.00043716843, "MEAN_MOTION_DOT": 1.808e-05, "MEAN_MOTION_DDOT": 0}, "tle": {"line1": "1 33826U 93036BT  25355.27122856  .00001808  00000+0  43717-3 0  9997", "line2": "2 33826  74.0637  33.8360 0082605  75.3455   5.8519 14.51758985878930"}}, "geometry": {"type": "Point", "coordinates": [58.14163879137236, 55.88323660081344]}}, {"type": "Feature", "properties": {"norad_id": 33828, "name": "COSMOS 2251 DEB", "group": "cosmos-2251-debris", "lat": 71.4915305123798, "lon": -79.6954408730414, "alt_km": 754.5965311413947, "timestamp": "2025-12-21T14:40:48.311445+00:00", "meta": {"OBJECT_NAME": "COSMOS 2251 DEB", "OBJECT_ID": "1993-036BV", "EPOCH": "2025-12-21T01:20:29.057568", "MEAN_MOTION": 14.44354938, "ECCENTRICITY": 0.00295205, "INCLINATION": 74.0454, "RA_OF_ASC_NODE": 222.6259, "ARG_OF_PERICENTER": 294.2734, "MEAN_ANOMALY": 137.3744, "EPHEMERIS_TYPE": 0, "CLASSIFICATION_TYPE": "U", "NORAD_CAT_ID": 33828, "ELEMENT_SET_NO": 999, "REV_AT_EPOCH": 88433, "BSTAR": 0.00028149962, "MEAN_MOTION_DOT": 9.47e-06, "MEAN_MOTION_DDOT": 0}, "tle": {"line1": "1 33828U 93036BV  25355.05589187  .00000947  00000+0  28150-3 0  9996", "line2": "2 33828  74.0454 222.6259 0029520 294.2734 137.3744 14.44354938884337"}}, "geometry": {"type": "Point", "coordinates": [-79.6954408730414, 71.4915305123798]}}, {"type": "Feature", "properties": {"norad_id": 33830, "name": "COSMOS 2251 DEB", "group": "cosmos-2251-debris", "lat": -73.22505312318715, "lon": 141.17475019706953, "alt_km": 628.9939106545016, "timestamp": "2025-12-21T14:40:48.311457+00:00", "meta": {"OBJECT_NAME": "COSMOS 2251 DEB", "OBJECT_ID": "1993-036BX", "EPOCH": "2025-12-21T07:28:41.253312", "MEAN_MOTION": 14.76982373, "ECCENTRICITY": 0.00426305, "INCLINATION": 74.0309, "RA_OF_ASC_NODE": 213.5591, "ARG_OF_PERICENTER": 331.8478, "MEAN_ANOMALY": 148.8305, "EPHEMERIS_TYPE": 0, "CLASSIFICATION_TYPE": "U", "NORAD_CAT_ID": 33830, "ELEMENT_SET_NO": 999, "REV_AT_EPOCH": 89598, "BSTAR": 0.00051792338, "MEAN_MOTION_DOT": 3.671e-05, "MEAN_MOTION_DDOT": 0}, "tle": {"line1": "1 33830U 93036BX  25355.31158858  .00003671  00000+0  51792-3 0  9990", "line2": "2 33830  74.0309 213.5591 0042630 331.8478 148.8305 14.76982373895985"}}, "geometry": {"type": "Point", "coordinates": [141.17475019706953, -73.22505312318715]}}, {"type": "Feature", "properties": {"norad_id": 33832, "name": "COSMOS 2251 DEB", "group": "cosmos-2251-debris", "lat": 12.370223039861248, "lon": 9.45089931754838, "alt_km": 681.8542367582086, "timestamp": "2025-12-21T14:40:48.311480+00:00", "meta": {"OBJECT_NAME": "COSMOS 2251 DEB", "OBJECT_ID": "1993-036BZ", "EPOCH": "2025-12-20T13:23:52.437984", "MEAN_MOTION": 14.60728869, "ECCENTRICITY": 0.0024418, "INCLINATION": 74.0526, "RA_OF_ASC_NODE": 195.056, "ARG_OF_PERICENTER": 224.6655, "MEAN_ANOMALY": 165.2826, "EPHEMERIS_TYPE": 0, "CLASSIFICATION_TYPE": "U", "NORAD_CAT_ID": 33832, "ELEMENT_SET_NO": 999, "REV_AT_EPOCH": 88539, "BSTAR": 0.00077782, "MEAN_MOTION_DOT": 3.78e-05, "MEAN_MOTION_DDOT": 0}, "tle": {"line1": "1 33832U 93036BZ  25354.55824581  .00003780  00000+0  77782-3 0  9998", "line2": "2 33832  74.0526 195.0560 0024418 224.6655 165.2826 14.60728869885394"}}, "geometry": {"type": "Point", "coordinates": [9.45089931754838, 12.370223039861248]}}, {"type": "Feature", "properties": {"norad_id": 33835, "name": "COSMOS 2251 DEB", "group": "cosmos-2251-debris", "lat": 49.951900317475804, "lon": 104.02193326019663, "alt_km": 675.4734159849686, "timestamp": "2025-12-21T14:40:48.311500+00:00", "meta": {"OBJECT_NAME": "COSMOS 2251 DEB", "OBJECT_ID": "1993-036CC", "EPOCH": "2025-12-20T15:59:49.311744", "MEAN_MOTION": 14.62320106, "ECCENTRICITY": 0.00540227, "INCLINATION": 74.0578, "RA_OF_ASC_NODE": 85.9476, "ARG_OF_PERICENTER": 137.2138, "MEAN_ANOMALY": 342.7905, "EPHEMERIS_TYPE": 0, "CLASSIFICATION_TYPE": "U", "NORAD_CAT_ID": 33835, "ELEMENT_SET_NO": 999, "REV_AT_EPOCH": 88905, "BSTAR": 0.0005664675, "MEAN_MOTION_DOT": 2.891e-05, "MEAN_MOTION_DDOT": 0}, "tle": {"line1": "1 33835U 93036CC  25354.66654296  .00002891  00000+0  56647-3 0  9996", "line2": "2 33835  74.0578  85.9476 0054022 137.2138 342.7905 14.62320106889057"}}, "geometry": {"type": "Point", "coordinates": [104.02193326019663, 49.951900317475804]}}, {"type": "Feature", "properties": {"norad_id": 33836, "name": "COSMOS 2251 DEB", "group": "cosmos-2251-debris", "lat": -73.79040764267197, "lon": 160.60599886768213, "alt_km": 652.9809446008303, "timestamp": "2025-12-21T14:40:48.311516+00:00", "meta": {"OBJECT_NAME": "COSMOS 2251 DEB", "OBJECT_ID": "1993-036CD", "EPOCH": "2025-12-21T00:45:28.353024", "MEAN_MOTION": 14.79748232, "ECCENTRICITY": 0.00227277, "INCLINATION": 73.9968, "RA_OF_ASC_NODE": 242.5875, "ARG_OF_PERICENTER": 92.5688, "MEAN_ANOMALY": 331.0689, "EPHEMERIS_TYPE": 0, "CLASSIFICATION_TYPE": "U", "NORAD_CAT_ID": 33836, "ELEMENT_SET_NO": 999, "REV_AT_EPOCH": 64211, "BSTAR": 0.00070286954, "MEAN_MOTION_DOT": 5.278e-05, "MEAN_MOTION_DDOT": 0}, "tle": {"line1": "1 33836U 93036CD  25355.03157816  .00005278  00000+0  70287-3 0  9993", "line2": "2 33836  73.9968 242.5875 0022727  92.5688 331.0689 14.79748232642119"}}, "geometry": {"type": "Point", "coordinates": [160.60599886768213, -73.79040764267197]}}, {"type": "Feature", "properties": {"norad_id": 33837, "name": "COSMOS 2251 DEB", "group": "cosmos-2251-debris", "lat": 44.419734698923925, "lon": 55.21206085828934, "alt_km": 740.6944602543099, "timestamp": "2025-12-21T14:40:48.311527+00:00", "meta": {"OBJECT_NAME": "COSMOS 2251 DEB", "OBJECT_ID": "1993-036CE", "EPOCH": "2025-12-21T02:52:45.909120", "MEAN_MOTION": 14.50717283, "ECCENTRICITY": 0.00359018, "INCLINATION": 74.0124, "RA_OF_ASC_NODE": 39.8205, "ARG_OF_PERICENTER": 260.198, "MEAN_ANOMALY": 99.5125, "EPHEMERIS_TYPE": 0, "CLASSIFICATION_TYPE": "U", "NORAD_CAT_ID": 33837, "ELEMENT_SET_NO": 999, "REV_AT_EPOCH": 88917, "BSTAR": 0.00017307815, "MEAN_MOTION_DOT": 6.57e-06, "MEAN_MOTION_DDOT": 0}, "tle": {"line1": "1 33837U 93036CE  25355.11997580  .00000657  00000+0  17308-3 0  9994", "line2": "2 33837  74.0124  39.8205 0035901 260.1980  99.5125 14.50717283889177"}}, "geometry": {"type": "Point", "coordinates": [55.21206085828934, 44.419734698923925]}}, {"type": "Feature", "properties": {"norad_id": 33838, "name": "COSMOS 2251 DEB", "group": "cosmos-2251-debris", "lat": -23.429317089335083, "lon": -39.675269330923854, "alt_km": 723.2792315831848, "timestamp": "2025-12-21T14:40:48.311537+00:00", "meta": {"OBJECT_NAME": "COSMOS 2251 DEB", "OBJECT_ID": "1993-036CF", "EPOCH": "2025-12-20T09:42:46.395360", "MEAN_MOTION": 14.48384547, "ECCENTRICITY": 0.00275049, "INCLINATION": 74.036, "RA_OF_ASC_NODE": 135.4587, "ARG_OF_PERICENTER": 256.2914, "MEAN_ANOMALY": 137.4758, "EPHEMERIS_TYPE": 0, "CLASSIFICATION_TYPE": "U", "NORAD_CAT_ID": 33838, "ELEMENT_SET_NO": 999, "REV_AT_EPOCH": 88680, "BSTAR": 0.00029293956, "MEAN_MOTION_DOT": 1.074e-05, "MEAN_MOTION_DDOT": 0}, "tle": {"line1": "1 33838U 93036CF  25354.40470365  .00001074  00000+0  29294-3 0  9994", "line2": "2 33838  74.0360 135.4587 0027504 256.2914 137.4758 14.48384547886800"}}, "geometry": {"type": "Point", "coordinates": [-39.675269330923854, -23.429317089335083]}}, {"type": "Feature", "properties": {"norad_id": 33839, "name": "COSMOS 2251 DEB", "group": "cosmos-2251-debris", "lat": -69.50146042260286, "lon": 139.47191493041592, "alt_km": 627.9946145483045, "timestamp": "2025-12-21T14:40:48.311548+00:00", "meta": {"OBJECT_NAME": "COSMOS 2251 DEB", "OBJECT_ID": "1993-036CG", "EPOCH": "2025-12-20T19:25:08.724000", "MEAN_MOTION": 14.64438026, "ECCENTRICITY": 0.0085312, "INCLINATION": 74.0376, "RA_OF_ASC_NODE": 190.9743, "ARG_OF_PERICENTER": 301.1962, "MEAN_ANOMALY": 72.8913, "EPHEMERIS_TYPE": 0, "CLASSIFICATION_TYPE": "U", "NORAD_CAT_ID": 33839, "ELEMENT_SET_NO": 999, "REV_AT_EPOCH": 89698, "BSTAR": 0.00013471317, "MEAN_MOTION_DOT": 7.17e-06, "MEAN_MOTION_DDOT": 0}, "tle": {"line1": "1 33839U 93036CG  25354.80912875  .00000717  00000+0  13471-3 0  9999", "line2": "2 33839  74.0376 190.9743 0085312 301.1962  72.8913 14.64438026896987"}}, "geometry": {"type": "Point", "coordinates": [139.47191493041592, -69.50146042260286]}}]}